STARLINK-31584          
1 59862U 24098E   26068.00823539 -.00000815  00000+0 -20108-4 0  9995
2 59862  42.9997 281.7009 0000818 257.1294 102.9466 15.27580285101740
FLOCK 4G-6              
1 62660U 25009BD  26068.71061311  .00012261  00000+0  45910-3 0  9991
2 62660  97.3980 150.7943 0002380 348.2637  11.8546 15.27432125121307
