[{"OBJECT_NAME":"STARLINK-31584","OBJECT_ID":"2024-098E","EPOCH":"2026-03-09T00:11:51.537696","MEAN_MOTION":15.27580285,"ECCENTRICITY":8.188e-5,"INCLINATION":42.9997,"RA_OF_ASC_NODE":281.7009,"ARG_OF_PERICENTER":257.1294,"MEAN_ANOMALY":102.9466,"EPHEMERIS_TYPE":0,"CLASSIFICATION_TYPE":"U","NORAD_CAT_ID":59862,"ELEMENT_SET_NO":999,"REV_AT_EPOCH":10174,"BSTAR":-2.0107732e-5,"MEAN_MOTION_DOT":-8.15e-6,"MEAN_MOTION_DDOT":0},{"OBJECT_NAME":"FLOCK 4G-6","OBJECT_ID":"2025-009BD","EPOCH":"2026-03-09T17:03:16.973568","MEAN_MOTION":15.27432125,"ECCENTRICITY":0.00023795,"INCLINATION":97.398,"RA_OF_ASC_NODE":150.7943,"ARG_OF_PERICENTER":348.2637,"MEAN_ANOMALY":11.8546,"EPHEMERIS_TYPE":0,"CLASSIFICATION_TYPE":"U","NORAD_CAT_ID":62660,"ELEMENT_SET_NO":999,"REV_AT_EPOCH":12130,"BSTAR":0.00045909501,"MEAN_MOTION_DOT":0.00012261,"MEAN_MOTION_DDOT":0}]
